{"fetched_at":"2026-03-29T16:36:15Z","count":15609,"tles":[{"name":"STARLINK-32884","line1":"1 62953U 25029F   26087.85372367  .00018103  00000+0  62177-3 0  9995","line2":"2 62953  53.1584 141.1743 0001620  88.2932 271.8254 15.30203297 64297","category":"Starlink"}]}