{
  "norad_id": 62953,
  "name": "STARLINK-32884",
  "history": [
    {
      "epoch": "2026-03-28T20:29:21.725088Z",
      "apogee_km": 476.3156722300364,
      "perigee_km": 474.0947781485402,
      "latitude_deg": -2.2745249529625088e-05,
      "longitude_deg": 7.565557497924564,
      "height_km": 476.0695715239612,
      "semi_major_axis_km": 6853.342225189288,
      "eccentricity": 0.00016203,
      "inclination_deg": 53.1584,
      "raan_deg": 141.1743,
      "arg_perigee_deg": 88.2932,
      "mean_anomaly_deg": 271.8254,
      "mean_motion_rev_day": 15.30203297
    }
  ]
}